OBJECT_NAME,OBJECT_ID,EPOCH,MEAN_MOTION,ECCENTRICITY,INCLINATION,RA_OF_ASC_NODE,ARG_OF_PERICENTER,MEAN_ANOMALY,EPHEMERIS_TYPE,CLASSIFICATION_TYPE,NORAD_CAT_ID,ELEMENT_SET_NO,REV_AT_EPOCH,BSTAR,MEAN_MOTION_DOT,MEAN_MOTION_DDOT
LEMUR-2-ROUNDTRIPPER,2025-009DG,2026-07-14T18:29:19.053888,15.04228089,.00044444,97.7254,278.4154,64.5890,295.5795,0,U,62711,999,8177,.34951456E-3,.4798E-4,0
LEMUR-2-MYNAMEISJEFF,2025-009DH,2026-07-14T18:27:08.106048,15.04219262,.00040322,97.7303,278.8116,98.2906,261.8777,0,U,62712,999,8177,.34530952E-3,.4738E-4,0
LEMUR-2-LEIA-PHILIP,2025-052AN,2026-07-14T22:28:04.831392,14.97391318,.00050956,97.6807,87.4167,119.8953,240.2776,0,U,63246,999,7282,.21592027E-4,.193E-5,0
LEMUR-2-LIA-MARTIN,2025-052AQ,2026-07-14T15:55:39.259776,14.98028183,.0005323,97.6872,87.6667,90.9786,269.2046,0,U,63248,999,7279,.20187793E-3,.2328E-4,0
LEMUR-2-DELOITTE-1,2025-052BB,2026-07-14T17:03:35.050176,14.97779672,.00025186,97.6883,88.0432,65.5958,294.5527,0,U,63259,999,7281,.20091075E-3,.2301E-4,0
LEMUR-2-EMERSONROSE,2025-052BD,2026-07-14T15:48:36.102816,14.99288120,.00027468,97.6885,88.6039,61.6486,298.5014,0,U,63261,999,7285,.23258431E-3,.278E-4,0
LEMUR-2-MARACHE-FRAN,2025-052BE,2026-07-14T16:21:49.775040,15.00313702,.00051325,97.6840,88.9942,254.1706,105.8952,0,U,63262,999,7288,.14882733E-3,.1807E-4,0
LEMUR-2-THEFALCONER,2025-052BG,2026-07-14T16:11:07.289952,14.97562332,.00003055,97.6834,87.5989,310.2900,49.8296,0,U,63264,999,7280,.91950039E-4,.1016E-4,0
LEMUR-2-UNTITLED-SC,2025-061A,2026-07-14T22:06:56.736000,15.13645430,.00192115,97.5652,171.0866,163.9754,196.2089,0,U,63351,999,7178,.92971971E-4,.1611E-4,0
LEMUR-2-ESPERANZA,2025-061B,2026-07-14T21:31:27.406272,15.13751282,.00188243,97.5659,171.1621,163.2431,196.9426,0,U,63352,999,7178,.10314055E-3,.1799E-4,0
LEMUR-2-KREMPEL-BRO2,2025-061C,2026-07-14T21:58:53.744448,15.14177711,.00199463,97.5705,171.7497,156.1877,204.0282,0,U,63353,999,7180,.91080071E-4,.1601E-4,0
LEMUR-2-THERMORAPTOR,2025-061D,2026-07-14T21:30:55.326816,15.14260636,.00197049,97.5710,171.8114,155.0940,205.1247,0,U,63354,999,7180,.11201125E-3,.199E-4,0
LEMUR-2-NEUROSPICY,2025-061E,2026-07-14T20:47:03.322752,15.14379540,.00174571,97.5638,171.3860,158.0548,202.1435,0,U,63355,999,7180,.11331713E-3,.2019E-4,0
LEMUR-2-TILLINFINITY,2025-061F,2026-07-14T21:22:28.682400,15.14963133,.00190367,97.5623,171.7204,146.8297,213.4133,0,U,63356,999,7183,.11684046E-3,.212E-4,0
LEMUR-2-KREMPEL-BRO1,2025-061G,2026-07-14T20:49:22.423296,15.14770588,.00196635,97.5623,171.6057,148.3273,211.9146,0,U,63357,999,7182,.11295032E-3,.2037E-4,0
LEMUR-2-LANGER2SPACE,2025-061H,2026-07-14T21:35:32.440128,15.14463886,.00173972,97.5630,171.4405,156.1893,204.0148,0,U,63358,999,7181,.10499637E-3,.187E-4,0
LEMUR-2-BALTO,2025-052BH,2026-07-14T15:59:20.189760,15.00361361,.00051474,97.6930,88.9659,329.8466,30.2460,0,U,63395,999,7288,.21455712E-3,.2634E-4,0
LEMUR-2-KRISH,2025-135AK,2026-07-14T06:59:13.109280,14.96445154,.00013907,97.7772,309.9867,95.6584,264.4796,0,U,64561,999,5797,.17575838E-3,.1935E-4,0
LEMUR-2-HUBBLE-4,2025-135AP,2026-07-14T22:33:54.660672,14.93685564,.00026506,97.7719,309.5247,162.7068,197.4243,0,U,64565,999,5801,.93599964E-4,.933E-5,0
LEMUR-2-SEJONG-2,2025-135BL,2026-07-14T21:56:13.951968,14.96910234,.00039552,97.7707,310.7513,220.0704,140.0226,0,U,64586,999,5809,.18896905E-3,.2111E-4,0
LEMUR-2-HUBBLE-5,2025-135BT,2026-07-14T21:10:19.886304,14.94213274,.0004295,97.7740,310.1359,236.4983,123.5827,0,U,64840,999,5804,.75317708E-4,.75E-5,0
LEMUR-2-KARENDARRELL,2025-135BU,2026-07-14T20:42:45.582048,15.00496961,.00124091,97.7716,312.0347,105.8170,254.4422,0,U,64841,999,5816,.33967518E-3,.4225E-4,0
LEMUR-2-LUCILLE-ROSE,2025-135BV,2026-07-14T20:04:31.574784,15.00486338,.00148827,97.7711,312.0433,190.0513,170.0415,0,U,65403,999,5278,.27829675E-3,.3451E-4,0
LEMUR-2-AFFIE-WAUWIE,2025-248C,2026-07-14T09:19:56.627040,15.28229453,.00087596,45.3893,327.4899,246.6108,113.3860,0,U,66295,999,3875,.47322499E-3,.12991E-3,0
OTTER SDM,2025-276N,2026-07-14T04:13:03.478944,15.20049880,.00042681,97.4208,268.2073,258.7712,101.3043,0,U,66678,999,3451,.16567661E-3,.3505E-4,0
LEMUR-2-STAS-GORBUK,2025-276W,2026-07-14T17:22:05.266848,15.19655944,.00035816,97.4241,268.7981,250.0656,110.0194,0,U,66686,999,3459,.13445371E-3,.2799E-4,0
LEMUR-2-TEODOR,2025-276DG,2026-07-14T17:49:52.589856,15.21334512,.00022312,97.4146,269.0885,87.3764,272.7727,0,U,66768,999,3463,.15199479E-3,.3334E-4,0
LEMUR-2-LAILA,2025-276DQ,2026-07-14T21:50:35.219904,15.21561549,.00029204,97.4170,269.3915,95.2226,264.9343,0,U,66776,999,3466,.14028227E-3,.3093E-4,0
LEMUR-2-CELIJO-SB-PK,2025-276DW,2026-07-14T17:13:56.069184,15.00280687,.00070446,97.5200,265.5868,65.5259,294.6700,0,U,66781,999,2675,.22037788E-3,.2704E-4,0
